STARLINK-36581          
1 67543U 26014M   26032.50002314 -.01509195  62937-3 -52416-2 0  9998
2 67543  97.2807 275.5400 0001550  76.6271 130.7189 15.89480825  2879
STARLINK-36565          
1 67544U 26014N   26032.50002314 -.01500389  62363-3 -51659-2 0  9996
2 67544  97.2800 275.5412 0001459  78.8679 132.6867 15.89653924  2876
STARLINK-36583          
1 67545U 26014P   26032.50002314 -.01498860  62351-3 -51155-2 0  9995
2 67545  97.2797 275.5430 0001432  79.9916 135.7743 15.89829161  2874
STARLINK-36580          
1 67546U 26014Q   26032.50002314 -.01511819  63497-3 -50999-2 0  9993
2 67546  97.2792 275.5450 0001430  89.2210 131.8720 15.90063546  2872
STARLINK-36584          
1 67547U 26014R   26032.50002314 -.01503292  62929-3 -50323-2 0  9990
2 67547  97.2789 275.5464 0001370  83.3484 141.5176 15.90215610  2879
STARLINK-36586          
1 67548U 26014S   26032.50002314 -.01487930  61874-3 -49264-2 0  9991
2 67548  97.2794 275.5493 0001505  83.6847 146.4263 15.90431333  2877
STARLINK-36564          
1 67549U 26014T   26032.50002314 -.01476924  61143-3 -48432-2 0  9998
2 67549  97.2794 275.5515 0001391  82.0723 152.5826 15.90620338  2814
STARLINK-36563          
1 67550U 26014U   26032.50002314 -.01479074  61423-3 -48037-2 0  9991
2 67550  97.2783 275.5526 0001493  81.0737 158.0784 15.90810907  2876
STARLINK-36566          
1 67551U 26014V   26032.50002314 -.01465090  60452-3 -47178-2 0  9991
2 67551  97.2778 275.5541 0001369  84.9121 158.3361 15.90977673  2877
STARLINK-36567          
1 67552U 26014W   26032.50002314 -.01465875  60616-3 -46787-2 0  9990
2 67552  97.2776 275.5559 0001311  92.2073 155.1686 15.91152628  2871
STARLINK-36569          
1 67553U 26014X   26032.50002314 -.01454964  59918-3 -45900-2 0  9997
2 67553  97.2774 275.5583 0001321  83.7080 169.0406 15.91380081  2871
STARLINK-36395          
1 67554U 26014Y   26032.50002314 -.01459129  60606-3 -44607-2 0  9995
2 67554  97.2769 275.5649 0001439  87.7211 179.2687 15.91994866  2875
