CCSDS_OMM_VERS = 2.0
CREATION_DATE  = 
ORIGINATOR     = 

OBJECT_NAME    = STARLINK-36581
OBJECT_ID      = 2026-014M
CENTER_NAME    = EARTH
REF_FRAME      = TEME
TIME_SYSTEM    = UTC
MEAN_ELEMENT_THEORY = SGP/SGP4

EPOCH          = 2026-02-01T12:00:01.999296
MEAN_MOTION    = 15.89480825
ECCENTRICITY   = .000155
INCLINATION    = 97.2807
RA_OF_ASC_NODE = 275.5400
ARG_OF_PERICENTER = 76.6271
MEAN_ANOMALY   = 130.7189

EPHEMERIS_TYPE = 0
CLASSIFICATION_TYPE = U
NORAD_CAT_ID   = 67543
ELEMENT_SET_NO = 999
REV_AT_EPOCH   = 287
BSTAR          = -.52416E-2
MEAN_MOTION_DOT = -.1509195E-1
MEAN_MOTION_DDOT = .62937E-3

CCSDS_OMM_VERS = 2.0
CREATION_DATE  = 
ORIGINATOR     = 

OBJECT_NAME    = STARLINK-36565
OBJECT_ID      = 2026-014N
CENTER_NAME    = EARTH
REF_FRAME      = TEME
TIME_SYSTEM    = UTC
MEAN_ELEMENT_THEORY = SGP/SGP4

EPOCH          = 2026-02-01T12:00:01.999296
MEAN_MOTION    = 15.89653924
ECCENTRICITY   = .0001459
INCLINATION    = 97.2800
RA_OF_ASC_NODE = 275.5412
ARG_OF_PERICENTER = 78.8679
MEAN_ANOMALY   = 132.6867

EPHEMERIS_TYPE = 0
CLASSIFICATION_TYPE = U
NORAD_CAT_ID   = 67544
ELEMENT_SET_NO = 999
REV_AT_EPOCH   = 287
BSTAR          = -.51659E-2
MEAN_MOTION_DOT = -.1500389E-1
MEAN_MOTION_DDOT = .62363E-3

CCSDS_OMM_VERS = 2.0
CREATION_DATE  = 
ORIGINATOR     = 

OBJECT_NAME    = STARLINK-36583
OBJECT_ID      = 2026-014P
CENTER_NAME    = EARTH
REF_FRAME      = TEME
TIME_SYSTEM    = UTC
MEAN_ELEMENT_THEORY = SGP/SGP4

EPOCH          = 2026-02-01T12:00:01.999296
MEAN_MOTION    = 15.89829161
ECCENTRICITY   = .0001432
INCLINATION    = 97.2797
RA_OF_ASC_NODE = 275.5430
ARG_OF_PERICENTER = 79.9916
MEAN_ANOMALY   = 135.7743

EPHEMERIS_TYPE = 0
CLASSIFICATION_TYPE = U
NORAD_CAT_ID   = 67545
ELEMENT_SET_NO = 999
REV_AT_EPOCH   = 287
BSTAR          = -.51155E-2
MEAN_MOTION_DOT = -.149886E-1
MEAN_MOTION_DDOT = .62351E-3

CCSDS_OMM_VERS = 2.0
CREATION_DATE  = 
ORIGINATOR     = 

OBJECT_NAME    = STARLINK-36580
OBJECT_ID      = 2026-014Q
CENTER_NAME    = EARTH
REF_FRAME      = TEME
TIME_SYSTEM    = UTC
MEAN_ELEMENT_THEORY = SGP/SGP4

EPOCH          = 2026-02-01T12:00:01.999296
MEAN_MOTION    = 15.90063546
ECCENTRICITY   = .000143
INCLINATION    = 97.2792
RA_OF_ASC_NODE = 275.5450
ARG_OF_PERICENTER = 89.2210
MEAN_ANOMALY   = 131.8720

EPHEMERIS_TYPE = 0
CLASSIFICATION_TYPE = U
NORAD_CAT_ID   = 67546
ELEMENT_SET_NO = 999
REV_AT_EPOCH   = 287
BSTAR          = -.50999E-2
MEAN_MOTION_DOT = -.1511819E-1
MEAN_MOTION_DDOT = .63497E-3

CCSDS_OMM_VERS = 2.0
CREATION_DATE  = 
ORIGINATOR     = 

OBJECT_NAME    = STARLINK-36584
OBJECT_ID      = 2026-014R
CENTER_NAME    = EARTH
REF_FRAME      = TEME
TIME_SYSTEM    = UTC
MEAN_ELEMENT_THEORY = SGP/SGP4

EPOCH          = 2026-02-01T12:00:01.999296
MEAN_MOTION    = 15.90215610
ECCENTRICITY   = .000137
INCLINATION    = 97.2789
RA_OF_ASC_NODE = 275.5464
ARG_OF_PERICENTER = 83.3484
MEAN_ANOMALY   = 141.5176

EPHEMERIS_TYPE = 0
CLASSIFICATION_TYPE = U
NORAD_CAT_ID   = 67547
ELEMENT_SET_NO = 999
REV_AT_EPOCH   = 287
BSTAR          = -.50323E-2
MEAN_MOTION_DOT = -.1503292E-1
MEAN_MOTION_DDOT = .62929E-3

CCSDS_OMM_VERS = 2.0
CREATION_DATE  = 
ORIGINATOR     = 

OBJECT_NAME    = STARLINK-36586
OBJECT_ID      = 2026-014S
CENTER_NAME    = EARTH
REF_FRAME      = TEME
TIME_SYSTEM    = UTC
MEAN_ELEMENT_THEORY = SGP/SGP4

EPOCH          = 2026-02-01T12:00:01.999296
MEAN_MOTION    = 15.90431333
ECCENTRICITY   = .0001505
INCLINATION    = 97.2794
RA_OF_ASC_NODE = 275.5493
ARG_OF_PERICENTER = 83.6847
MEAN_ANOMALY   = 146.4263

EPHEMERIS_TYPE = 0
CLASSIFICATION_TYPE = U
NORAD_CAT_ID   = 67548
ELEMENT_SET_NO = 999
REV_AT_EPOCH   = 287
BSTAR          = -.49264E-2
MEAN_MOTION_DOT = -.148793E-1
MEAN_MOTION_DDOT = .61874E-3

CCSDS_OMM_VERS = 2.0
CREATION_DATE  = 
ORIGINATOR     = 

OBJECT_NAME    = STARLINK-36564
OBJECT_ID      = 2026-014T
CENTER_NAME    = EARTH
REF_FRAME      = TEME
TIME_SYSTEM    = UTC
MEAN_ELEMENT_THEORY = SGP/SGP4

EPOCH          = 2026-02-01T12:00:01.999296
MEAN_MOTION    = 15.90620338
ECCENTRICITY   = .0001391
INCLINATION    = 97.2794
RA_OF_ASC_NODE = 275.5515
ARG_OF_PERICENTER = 82.0723
MEAN_ANOMALY   = 152.5826

EPHEMERIS_TYPE = 0
CLASSIFICATION_TYPE = U
NORAD_CAT_ID   = 67549
ELEMENT_SET_NO = 999
REV_AT_EPOCH   = 281
BSTAR          = -.48432E-2
MEAN_MOTION_DOT = -.1476924E-1
MEAN_MOTION_DDOT = .61143E-3

CCSDS_OMM_VERS = 2.0
CREATION_DATE  = 
ORIGINATOR     = 

OBJECT_NAME    = STARLINK-36563
OBJECT_ID      = 2026-014U
CENTER_NAME    = EARTH
REF_FRAME      = TEME
TIME_SYSTEM    = UTC
MEAN_ELEMENT_THEORY = SGP/SGP4

EPOCH          = 2026-02-01T12:00:01.999296
MEAN_MOTION    = 15.90810907
ECCENTRICITY   = .0001493
INCLINATION    = 97.2783
RA_OF_ASC_NODE = 275.5526
ARG_OF_PERICENTER = 81.0737
MEAN_ANOMALY   = 158.0784

EPHEMERIS_TYPE = 0
CLASSIFICATION_TYPE = U
NORAD_CAT_ID   = 67550
ELEMENT_SET_NO = 999
REV_AT_EPOCH   = 287
BSTAR          = -.48037E-2
MEAN_MOTION_DOT = -.1479074E-1
MEAN_MOTION_DDOT = .61423E-3

CCSDS_OMM_VERS = 2.0
CREATION_DATE  = 
ORIGINATOR     = 

OBJECT_NAME    = STARLINK-36566
OBJECT_ID      = 2026-014V
CENTER_NAME    = EARTH
REF_FRAME      = TEME
TIME_SYSTEM    = UTC
MEAN_ELEMENT_THEORY = SGP/SGP4

EPOCH          = 2026-02-01T12:00:01.999296
MEAN_MOTION    = 15.90977673
ECCENTRICITY   = .0001369
INCLINATION    = 97.2778
RA_OF_ASC_NODE = 275.5541
ARG_OF_PERICENTER = 84.9121
MEAN_ANOMALY   = 158.3361

EPHEMERIS_TYPE = 0
CLASSIFICATION_TYPE = U
NORAD_CAT_ID   = 67551
ELEMENT_SET_NO = 999
REV_AT_EPOCH   = 287
BSTAR          = -.47178E-2
MEAN_MOTION_DOT = -.146509E-1
MEAN_MOTION_DDOT = .60452E-3

CCSDS_OMM_VERS = 2.0
CREATION_DATE  = 
ORIGINATOR     = 

OBJECT_NAME    = STARLINK-36567
OBJECT_ID      = 2026-014W
CENTER_NAME    = EARTH
REF_FRAME      = TEME
TIME_SYSTEM    = UTC
MEAN_ELEMENT_THEORY = SGP/SGP4

EPOCH          = 2026-02-01T12:00:01.999296
MEAN_MOTION    = 15.91152628
ECCENTRICITY   = .0001311
INCLINATION    = 97.2776
RA_OF_ASC_NODE = 275.5559
ARG_OF_PERICENTER = 92.2073
MEAN_ANOMALY   = 155.1686

EPHEMERIS_TYPE = 0
CLASSIFICATION_TYPE = U
NORAD_CAT_ID   = 67552
ELEMENT_SET_NO = 999
REV_AT_EPOCH   = 287
BSTAR          = -.46787E-2
MEAN_MOTION_DOT = -.1465875E-1
MEAN_MOTION_DDOT = .60616E-3

CCSDS_OMM_VERS = 2.0
CREATION_DATE  = 
ORIGINATOR     = 

OBJECT_NAME    = STARLINK-36569
OBJECT_ID      = 2026-014X
CENTER_NAME    = EARTH
REF_FRAME      = TEME
TIME_SYSTEM    = UTC
MEAN_ELEMENT_THEORY = SGP/SGP4

EPOCH          = 2026-02-01T12:00:01.999296
MEAN_MOTION    = 15.91380081
ECCENTRICITY   = .0001321
INCLINATION    = 97.2774
RA_OF_ASC_NODE = 275.5583
ARG_OF_PERICENTER = 83.7080
MEAN_ANOMALY   = 169.0406

EPHEMERIS_TYPE = 0
CLASSIFICATION_TYPE = U
NORAD_CAT_ID   = 67553
ELEMENT_SET_NO = 999
REV_AT_EPOCH   = 287
BSTAR          = -.459E-2
MEAN_MOTION_DOT = -.1454964E-1
MEAN_MOTION_DDOT = .59918E-3

CCSDS_OMM_VERS = 2.0
CREATION_DATE  = 
ORIGINATOR     = 

OBJECT_NAME    = STARLINK-36395
OBJECT_ID      = 2026-014Y
CENTER_NAME    = EARTH
REF_FRAME      = TEME
TIME_SYSTEM    = UTC
MEAN_ELEMENT_THEORY = SGP/SGP4

EPOCH          = 2026-02-01T12:00:01.999296
MEAN_MOTION    = 15.91994866
ECCENTRICITY   = .0001439
INCLINATION    = 97.2769
RA_OF_ASC_NODE = 275.5649
ARG_OF_PERICENTER = 87.7211
MEAN_ANOMALY   = 179.2687

EPHEMERIS_TYPE = 0
CLASSIFICATION_TYPE = U
NORAD_CAT_ID   = 67554
ELEMENT_SET_NO = 999
REV_AT_EPOCH   = 287
BSTAR          = -.44607E-2
MEAN_MOTION_DOT = -.1459129E-1
MEAN_MOTION_DDOT = .60606E-3

